{
    "links": {
        "self": "http://www.neowsapp.com/rest/v1/neo/3802448?api_key=iIulBulltgU6a56xZRHN4H3l9WmuAYTsLGpBGhQ2"
    },
    "id": "3802448",
    "neo_reference_id": "3802448",
    "name": "(2018 GO2)",
    "designation": "2018 GO2",
    "nasa_jpl_url": "http://ssd.jpl.nasa.gov/sbdb.cgi?sstr=3802448",
    "absolute_magnitude_h": 25.0,
    "estimated_diameter": {
        "kilometers": {
            "estimated_diameter_min": 0.02658,
            "estimated_diameter_max": 0.0594346868
        },
        "meters": {
            "estimated_diameter_min": 26.58,
            "estimated_diameter_max": 59.4346868419
        },
        "miles": {
            "estimated_diameter_min": 0.0165160412,
            "estimated_diameter_max": 0.0369309908
        },
        "feet": {
            "estimated_diameter_min": 87.2047272,
            "estimated_diameter_max": 194.9956979785
        }
    },
    "is_potentially_hazardous_asteroid": false,
    "close_approach_data": [
        {
            "close_approach_date": "2018-04-28",
            "close_approach_date_full": "2018-Apr-28 19:47",
            "epoch_date_close_approach": 1524944820000,
            "relative_velocity": {
                "kilometers_per_second": "5.8365170218",
                "kilometers_per_hour": "21011.4612785241",
                "miles_per_hour": "13055.7049260918"
            },
            "miss_distance": {
                "astronomical": "0.0604616082",
                "lunar": "23.5195655898",
                "kilometers": "9044927.803494534",
                "miles": "5620257.5222872092"
            },
            "orbiting_body": "Earth"
        }
    ],
    "orbital_data": {
        "orbit_id": "5",
        "orbit_determination_date": "2018-05-10 06:39:55",
        "first_observation_date": "2018-04-11",
        "last_observation_date": "2018-05-09",
        "data_arc_in_days": 28,
        "observations_used": 42,
        "orbit_uncertainty": "7",
        "minimum_orbit_intersection": ".0606454",
        "jupiter_tisserand_invariant": "4.023",
        "epoch_osculation": "2459000.5",
        "eccentricity": ".3928204408759607",
        "semi_major_axis": "1.756708248196161",
        "inclination": "6.739678464837854",
        "ascending_node_longitude": "32.6423717414043",
        "orbital_period": "850.4482415585859",
        "perihelion_distance": "1.066637339649308",
        "perihelion_argument": "185.4772363109792",
        "aphelion_distance": "2.446779156743014",
        "perihelion_time": "2459087.975024517846",
        "mean_anomaly": "322.9712811579079",
        "mean_motion": ".4233061842073316",
        "equinox": "J2000",
        "orbit_class": {
            "orbit_class_type": "AMO",
            "orbit_class_description": "Near-Earth asteroid orbits similar to that of 1221 Amor",
            "orbit_class_range": "1.017 AU < q (perihelion) < 1.3 AU"
        }
    },
    "is_sentry_object": false
}